{
  "type": "FeatureCollection",
  "features": [
    {
      "type": "Feature",
      "properties": {
        "norad_id": 55973,
        "name": "TIANMU-1 03",
        "group": "weather",
        "lat": -39.1625933698877,
        "lon": 161.97797375898142,
        "alt_km": 449.05685724790237,
        "timestamp": "2025-12-18T23:35:48.689151+00:00",
        "meta_object_name": "TIANMU-1 03",
        "meta_object_id": "2023-039A",
        "meta_epoch": "2025-12-18T14:25:05.162880",
        "meta_mean_motion": 15.4109044,
        "meta_eccentricity": 0.00041565,
        "meta_inclination": 97.5101,
        "meta_ra_of_asc_node": 155.4164,
        "meta_arg_of_pericenter": 44.6557,
        "meta_mean_anomaly": 315.5023,
        "meta_ephemeris_type": 0,
        "meta_classification_type": "U",
        "meta_norad_cat_id": 55973,
        "meta_element_set_no": 999,
        "meta_rev_at_epoch": 15296,
        "meta_bstar": 0.00031253514,
        "meta_mean_motion_dot": 0.00012847,
        "meta_mean_motion_ddot": 0,
        "tle_line1": "1 55973U 23039A   25352.60075420  .00012847  00000+0  31254-3 0  9996",
        "tle_line2": "2 55973  97.5101 155.4164 0004156  44.6557 315.5023 15.41090440152967"
      },
      "geometry": {
        "type": "Point",
        "coordinates": [
          161.97797375898142,
          -39.1625933698877
        ]
      }
    },
    {
      "type": "Feature",
      "properties": {
        "norad_id": 55974,
        "name": "TIANMU-1 04",
        "group": "weather",
        "lat": 79.16853841571032,
        "lon": 111.45646592435796,
        "alt_km": 432.2090435986047,
        "timestamp": "2025-12-18T23:35:48.689162+00:00",
        "meta_object_name": "TIANMU-1 04",
        "meta_object_id": "2023-039B",
        "meta_epoch": "2025-12-18T13:53:38.470272",
        "meta_mean_motion": 15.41430523,
        "meta_eccentricity": 0.00047787,
        "meta_inclination": 97.5032,
        "meta_ra_of_asc_node": 154.5826,
        "meta_arg_of_pericenter": 38.6206,
        "meta_mean_anomaly": 321.5381,
        "meta_ephemeris_type": 0,
        "meta_classification_type": "U",
        "meta_norad_cat_id": 55974,
        "meta_element_set_no": 999,
        "meta_rev_at_epoch": 15296,
        "meta_bstar": 0.00031606106,
        "meta_mean_motion_dot": 0.00013142,
        "meta_mean_motion_ddot": 0,
        "tle_line1": "1 55974U 23039B   25352.57891748  .00013142  00000+0  31606-3 0  9992",
        "tle_line2": "2 55974  97.5032 154.5826 0004778  38.6206 321.5381 15.41430523152964"
      },
      "geometry": {
        "type": "Point",
        "coordinates": [
          111.45646592435796,
          79.16853841571032
        ]
      }
    },
    {
      "type": "Feature",
      "properties": {
        "norad_id": 55975,
        "name": "TIANMU-1 05",
        "group": "weather",
        "lat": 72.76750834221158,
        "lon": 0.6540769786713665,
        "alt_km": 433.975203929539,
        "timestamp": "2025-12-18T23:35:48.689176+00:00",
        "meta_object_name": "TIANMU-1 05",
        "meta_object_id": "2023-039C",
        "meta_epoch": "2025-12-18T15:20:56.370048",
        "meta_mean_motion": 15.41048695,
        "meta_eccentricity": 0.00042013,
        "meta_inclination": 97.5079,
        "meta_ra_of_asc_node": 155.1375,
        "meta_arg_of_pericenter": 62.1661,
        "meta_mean_anomaly": 298.001,
        "meta_ephemeris_type": 0,
        "meta_classification_type": "U",
        "meta_norad_cat_id": 55975,
        "meta_element_set_no": 999,
        "meta_rev_at_epoch": 15295,
        "meta_bstar": 0.00031210531,
        "meta_mean_motion_dot": 0.00012812,
        "meta_mean_motion_ddot": 0,
        "tle_line1": "1 55975U 23039C   25352.63954132  .00012812  00000+0  31211-3 0  9992",
        "tle_line2": "2 55975  97.5079 155.1375 0004201  62.1661 298.0010 15.41048695152951"
      },
      "geometry": {
        "type": "Point",
        "coordinates": [
          0.6540769786713665,
          72.76750834221158
        ]
      }
    },
    {
      "type": "Feature",
      "properties": {
        "norad_id": 55976,
        "name": "TIANMU-1 06",
        "group": "weather",
        "lat": 69.8353265993346,
        "lon": 134.910176958162,
        "alt_km": 432.0214770721377,
        "timestamp": "2025-12-18T23:35:48.689186+00:00",
        "meta_object_name": "TIANMU-1 06",
        "meta_object_id": "2023-039D",
        "meta_epoch": "2025-12-18T15:29:58.084224",
        "meta_mean_motion": 15.41483115,
        "meta_eccentricity": 0.00044759,
        "meta_inclination": 97.509,
        "meta_ra_of_asc_node": 155.6139,
        "meta_arg_of_pericenter": 56.6649,
        "meta_mean_anomaly": 303.5025,
        "meta_ephemeris_type": 0,
        "meta_classification_type": "U",
        "meta_norad_cat_id": 55976,
        "meta_element_set_no": 999,
        "meta_rev_at_epoch": 15297,
        "meta_bstar": 0.00030431492,
        "meta_mean_motion_dot": 0.00012671,
        "meta_mean_motion_ddot": 0,
        "tle_line1": "1 55976U 23039D   25352.64581116  .00012671  00000+0  30431-3 0  9998",
        "tle_line2": "2 55976  97.5090 155.6139 0004475  56.6649 303.5025 15.41483115152975"
      },
      "geometry": {
        "type": "Point",
        "coordinates": [
          134.910176958162,
          69.8353265993346
        ]
      }
    },
    {
      "type": "Feature",
      "properties": {
        "norad_id": 56232,
        "name": "FENGYUN 3G",
        "group": "weather",
        "lat": 42.12316796372604,
        "lon": -34.19931801781461,
        "alt_km": 395.75313600415393,
        "timestamp": "2025-12-18T23:35:48.689197+00:00",
        "meta_object_name": "FENGYUN 3G",
        "meta_object_id": "2023-055A",
        "meta_epoch": "2025-12-18T13:49:41.889792",
        "meta_mean_motion": 15.53985622,
        "meta_eccentricity": 0.00093718,
        "meta_inclination": 49.9921,
        "meta_ra_of_asc_node": 197.3287,
        "meta_arg_of_pericenter": 175.0064,
        "meta_mean_anomaly": 185.0999,
        "meta_ephemeris_type": 0,
        "meta_classification_type": "U",
        "meta_norad_cat_id": 56232,
        "meta_element_set_no": 999,
        "meta_rev_at_epoch": 15193,
        "meta_bstar": 0.00040207595,
        "meta_mean_motion_dot": 0.00026172,
        "meta_mean_motion_ddot": 0,
        "tle_line1": "1 56232U 23055A   25352.57617928  .00026172  00000+0  40208-3 0  9999",
        "tle_line2": "2 56232  49.9921 197.3287 0009371 175.0064 185.0999 15.53985622151930"
      },
      "geometry": {
        "type": "Point",
        "coordinates": [
          -34.19931801781461,
          42.12316796372604
        ]
      }
    },
    {
      "type": "Feature",
      "properties": {
        "norad_id": 57166,
        "name": "METEOR-M2 3",
        "group": "weather",
        "lat": -16.11391943228461,
        "lon": -136.10344549590505,
        "alt_km": 818.8420693123571,
        "timestamp": "2025-12-18T23:35:48.689208+00:00",
        "meta_object_name": "METEOR-M2 3",
        "meta_object_id": "2023-091A",
        "meta_epoch": "2025-12-18T14:14:48.215904",
        "meta_mean_motion": 14.24026775,
        "meta_eccentricity": 0.00035702,
        "meta_inclination": 98.6372,
        "meta_ra_of_asc_node": 46.0306,
        "meta_arg_of_pericenter": 351.5641,
        "meta_mean_anomaly": 8.5478,
        "meta_ephemeris_type": 0,
        "meta_classification_type": "U",
        "meta_norad_cat_id": 57166,
        "meta_element_set_no": 999,
        "meta_rev_at_epoch": 12881,
        "meta_bstar": 2.6622686e-05,
        "meta_mean_motion_dot": 1.8e-07,
        "meta_mean_motion_ddot": 0,
        "tle_line1": "1 57166U 23091A   25352.59361361  .00000018  00000+0  26623-4 0  9992",
        "tle_line2": "2 57166  98.6372  46.0306 0003570 351.5641   8.5478 14.24026775128811"
      },
      "geometry": {
        "type": "Point",
        "coordinates": [
          -136.10344549590505,
          -16.11391943228461
        ]
      }
    },
    {
      "type": "Feature",
      "properties": {
        "norad_id": 57399,
        "name": "TIANMU-1 07",
        "group": "weather",
        "lat": -18.859003506339917,
        "lon": -139.809468865673,
        "alt_km": 489.03874465595163,
        "timestamp": "2025-12-18T23:35:48.689218+00:00",
        "meta_object_name": "TIANMU-1 07",
        "meta_object_id": "2023-101A",
        "meta_epoch": "2025-12-18T14:52:18.875424",
        "meta_mean_motion": 15.2815395,
        "meta_eccentricity": 0.00053771,
        "meta_inclination": 97.2873,
        "meta_ra_of_asc_node": 42.3402,
        "meta_arg_of_pericenter": 66.817,
        "meta_mean_anomaly": 293.3636,
        "meta_ephemeris_type": 0,
        "meta_classification_type": "U",
        "meta_norad_cat_id": 57399,
        "meta_element_set_no": 999,
        "meta_rev_at_epoch": 13405,
        "meta_bstar": 0.00022767598,
        "meta_mean_motion_dot": 6.178e-05,
        "meta_mean_motion_ddot": 0,
        "tle_line1": "1 57399U 23101A   25352.61966291  .00006178  00000+0  22768-3 0  9996",
        "tle_line2": "2 57399  97.2873  42.3402 0005377  66.8170 293.3636 15.28153950134050"
      },
      "geometry": {
        "type": "Point",
        "coordinates": [
          -139.809468865673,
          -18.859003506339917
        ]
      }
    }
  ]
}